[{"OBJECT_NAME":"STARLINK-2123","OBJECT_ID":"2021-005BE","EPOCH":"2026-03-09T04:49:57.497952","MEAN_MOTION":15.06394562,"ECCENTRICITY":0.00014727,"INCLINATION":53.0564,"RA_OF_ASC_NODE":33.8148,"ARG_OF_PERICENTER":87.9808,"MEAN_ANOMALY":272.135,"EPHEMERIS_TYPE":0,"CLASSIFICATION_TYPE":"U","NORAD_CAT_ID":47401,"ELEMENT_SET_NO":999,"REV_AT_EPOCH":28339,"BSTAR":-3.260446e-5,"MEAN_MOTION_DOT":-7.67e-6,"MEAN_MOTION_DDOT":0},{"OBJECT_NAME":"ATLAS 5 CENTAUR R\/B","OBJECT_ID":"2013-072P","EPOCH":"2026-03-09T21:36:10.628064","MEAN_MOTION":14.96443736,"ECCENTRICITY":0.0189428,"INCLINATION":120.4328,"RA_OF_ASC_NODE":111.5185,"ARG_OF_PERICENTER":160.796,"MEAN_ANOMALY":200.0359,"EPHEMERIS_TYPE":0,"CLASSIFICATION_TYPE":"U","NORAD_CAT_ID":39475,"ELEMENT_SET_NO":999,"REV_AT_EPOCH":9970,"BSTAR":0.00054929733,"MEAN_MOTION_DOT":8.701e-5,"MEAN_MOTION_DDOT":0}]
